{
  "norad_id": 63461,
  "name": "STARLINK-33706",
  "history": [
    {
      "epoch": "2026-03-28T04:49:14.128608Z",
      "apogee_km": 483.4086356987182,
      "perigee_km": 482.62920838597347,
      "latitude_deg": 5.212183453980832e-05,
      "longitude_deg": -102.343323912829,
      "height_km": 482.99943919160114,
      "semi_major_axis_km": 6861.155922042345,
      "eccentricity": 5.68e-05,
      "inclination_deg": 42.9974,
      "raan_deg": 155.5902,
      "arg_perigee_deg": 238.2698,
      "mean_anomaly_deg": 121.8099,
      "mean_motion_rev_day": 15.27590077
    },
    {
      "epoch": "2026-03-29T04:21:35.152704Z",
      "apogee_km": 484.84259840828054,
      "perigee_km": 481.0950624037123,
      "latitude_deg": 3.0454933097457506e-05,
      "longitude_deg": -101.9368671427421,
      "height_km": 482.1549460775859,
      "semi_major_axis_km": 6861.105830405996,
      "eccentricity": 0.0002731,
      "inclination_deg": 43.0001,
      "raan_deg": 150.051,
      "arg_perigee_deg": 288.4036,
      "mean_anomaly_deg": 71.6519,
      "mean_motion_rev_day": 15.27606806
    },
    {
      "epoch": "2026-03-30T03:53:56.080896Z",
      "apogee_km": 483.52829858612677,
      "perigee_km": 482.497753852188,
      "latitude_deg": -1.4216564558305155e-05,
      "longitude_deg": -101.52833338480382,
      "height_km": 482.63878293269886,
      "semi_major_axis_km": 6861.150026219157,
      "eccentricity": 7.51e-05,
      "inclination_deg": 42.9977,
      "raan_deg": 144.5135,
      "arg_perigee_deg": 286.9376,
      "mean_anomaly_deg": 73.1393,
      "mean_motion_rev_day": 15.27592046
    },
    {
      "epoch": "2026-03-30T13:18:52.075296Z",
      "apogee_km": 484.1530128292479,
      "perigee_km": 481.77564121943306,
      "latitude_deg": 4.8973604347036885e-05,
      "longitude_deg": 114.63664139446881,
      "height_km": 482.6096682671023,
      "semi_major_axis_km": 6861.10132702434,
      "eccentricity": 0.00017325,
      "inclination_deg": 43.0008,
      "raan_deg": 142.2984,
      "arg_perigee_deg": 276.3621,
      "mean_anomaly_deg": 83.7034,
      "mean_motion_rev_day": 15.2760831
    }
  ]
}